GLOBALSTAR M024         
1 25883U 99043A   25147.85151583 -.00000034  00000+0  10877-2 0  9998
2 25883  52.0035  66.5039 0001946  58.0862  19.6810 11.10168300112630
GLOBALSTAR M027         
1 25884U 99043B   25147.94967344 -.00000069  00000+0 -19358-3 0  9992
2 25884  52.0171 143.6934 0021697 318.6708  41.2443 11.04371965139001
GLOBALSTAR M054         
1 25885U 99043C   25147.67103788  .00000077  00000+0  37801-2 0  9996
2 25885  52.0143 275.0597 0006502 138.4168 234.7547 11.39217942116711
GLOBALSTAR M053         
1 25886U 99043D   25147.49591397 -.00000031  00000+0  11009-2 0  9997
2 25886  51.9967 221.4247 0002859  52.4947 320.4845 11.27665461117111
GLOBALSTAR M058         
1 25907U 99049A   25147.78517564 -.00000066  00000+0  24288-3 0  9995
2 25907  51.9907 163.6539 0002038 228.3173 131.7487 11.93199917539107
GLOBALSTAR M050         
1 25908U 99049B   25147.79278529 -.00000117  00000+0 -32945-3 0  9999
2 25908  51.9957 172.8333 0009039 349.7210 181.1664 12.07453996145728
GLOBALSTAR M033         
1 25909U 99049C   25147.95460830 -.00000074  00000+0  17203-3 0  9997
2 25909  51.9933  45.6159 0012987 220.1005 139.8884 12.20292779165996
GLOBALSTAR M055         
1 25910U 99049D   25147.44398104 -.00000079  00000+0  13309-3 0  9995
2 25910  52.0034  58.8108 0007534  85.8415 274.3298 12.29427818165734
